NORAD_CAT_ID,OBJECT_NAME,OBJECT_TYPE,EPOCH,MEAN_MOTION,ECCENTRICITY,INCLINATION,RA_OF_ASC_NODE,ARG_OF_PERICENTER,MEAN_ANOMALY,BSTAR,MEAN_MOTION_DOT,MEAN_MOTION_DDOT,TLE_LINE0,TLE_LINE1,TLE_LINE2,SEMIMAJOR_AXIS,PERIOD,APOGEE,PERIGEE,DECAYED
52550.0,STARLINK-3965,PAYLOAD,2022-06-08 14:00:01,15.60507455,0.000133,53.2172,166.5289,61.9106,145.9084,-0.0093307999999999,-0.00717469,0.0,0 STARLINK-3965,1 52550U 22051T   22159.58334491 -.00717469  00000-0 -93308-2 0  9994,2 52550  53.2172 166.5289 0001330  61.9106 145.9084 15.60507455  1309,6764.3269999999975,92.278,387.092,385.293,0.0
52550.0,STARLINK-3965,PAYLOAD,2022-06-08 22:00:01,15.59994779,0.0001337,53.2174,164.9105,54.6284,226.6209,-0.0094509,-0.00712886,0.0,0 STARLINK-3965,1 52550U 22051T   22159.91668981 -.00712886  00000-0 -94509-2 0  9997,2 52550  53.2174 164.9105 0001337  54.6284 226.6209 15.59994779  4624,6765.809,92.308,388.579,386.77,0.0
52550.0,STARLINK-3965,PAYLOAD,2022-06-09 14:00:01,15.58976297,0.0001245,53.2171,161.6831,51.6223,14.448,-0.009848,-0.00714254,0.0,0 STARLINK-3965,1 52550U 22051T   22160.58334491 -.00714254  00000-0 -98480-2 0  9991,2 52550  53.2171 161.6831 0001245  51.6223  14.4480 15.58976297  1309,6768.755999999999,92.368,391.463,389.778,0.0
52550.0,STARLINK-3965,PAYLOAD,2022-06-09 22:00:00,15.58466755,0.0001421,53.2172,160.0685,49.5149,88.0812,-0.010069,-0.0071611,0.0,0 STARLINK-3965,1 52550U 22051T   22160.91667824 -.00716110  00000-0 -10069-1 0  9996,2 52550  53.2172 160.0685 0001421  49.5149  88.0812 15.58466755  1308,6770.231,92.399,393.0580000000001,391.134,0.0
52550.0,STARLINK-3965,PAYLOAD,2022-06-10 00:00:00,15.58338673,0.0001404,53.2175,159.6655,57.6713,187.7098,-0.010073,-0.00713176,0.0,0 STARLINK-3965,1 52550U 22051T   22161.00001157 -.00713176  00000-0 -10073-1 0  9992,2 52550  53.2175 159.6655 0001404  57.6713 187.7098 15.58338673  4796,6770.602,92.406,393.417,391.516,0.0
52550.0,STARLINK-3965,PAYLOAD,2022-06-10 14:00:01,15.57448048,0.0001281999999999,53.2173,156.8477,61.1023,217.7036,-0.010487,-0.00717461,0.0,0 STARLINK-3965,1 52550U 22051T   22161.58334491 -.00717461  00000-0 -10487-1 0  9995,2 52550  53.2173 156.8477 0001282  61.1023 217.7036 15.57448048  1300,6773.183000000001,92.459,395.916,394.179,0.0
52550.0,STARLINK-3965,PAYLOAD,2022-06-10 22:00:00,15.56934337,0.0001294,53.2174,155.237,51.1286,297.366,-0.010598,-0.00711691,0.0,0 STARLINK-3965,1 52550U 22051T   22161.91667824 -.00711691  00000-0 -10598-1 0  9993,2 52550  53.2174 155.2370 0001294  51.1286 297.3660 15.56934337  4949,6774.6730000000025,92.489,397.414,395.661,0.0
52550.0,STARLINK-3965,PAYLOAD,2022-06-11 22:00:00,15.55406673,0.0001466,53.2174,150.417,53.2876,140.5883,-0.01127,-0.0071462,0.0,0 STARLINK-3965,1 52550U 22051T   22162.91667824 -.00714620  00000-0 -11270-1 0  9997,2 52550  53.2174 150.4170 0001466  53.2876 140.5883 15.55406673  5092,6779.108,92.58,401.967,399.979,0.0
52550.0,STARLINK-3965,PAYLOAD,2022-06-12 14:00:01,15.54387636,0.0001259,53.2173,147.2112,56.8882,270.8444,-0.011727,-0.00715939,0.0,0 STARLINK-3965,1 52550U 22051T   22163.58334491 -.00715939  00000-0 -11727-1 0  9993,2 52550  53.2173 147.2112 0001259  56.8882 270.8444 15.54387636  1303,6782.07,92.641,404.789,403.081,0.0
52550.0,STARLINK-3965,PAYLOAD,2022-06-12 22:00:00,15.53874745,0.0001257,53.2174,145.6082,53.1177,340.6261,-0.011861,-0.0071104,0.0,0 STARLINK-3965,1 52550U 22051T   22163.91667824 -.00711040  00000-0 -11861-1 0  9997,2 52550  53.2174 145.6082 0001257  53.1177 340.6261 15.53874745  5259,6783.563,92.672,406.28,404.575,0.0
52550.0,STARLINK-3965,PAYLOAD,2022-06-13 14:00:01,15.52857102,0.0001336,53.2173,142.4095,62.5213,101.4021,-0.012375,-0.0071447,0.0,0 STARLINK-3965,1 52550U 22051T   22164.58334491 -.00714470  00000-0 -12375-1 0  9993,2 52550  53.2173 142.4095 0001336  62.5213 101.4021 15.52857102  1306,6786.526,92.732,409.298,407.484,0.0
52550.0,STARLINK-3965,PAYLOAD,2022-06-13 22:00:00,15.52346002,0.0001459,53.2173,140.8102,56.0339,172.0615,-0.012556,-0.00711845,0.0,0 STARLINK-3965,1 52550U 22051T   22164.91667824 -.00711845  00000-0 -12556-1 0  9993,2 52550  53.2173 140.8102 0001459  56.0339 172.0615 15.52346002  1305,6788.015,92.763,410.871,408.89,0.0
52550.0,STARLINK-3965,PAYLOAD,2022-06-14 14:00:01,15.51327347,0.0001174,53.2175,137.6189,60.769,293.8299,-0.013081,-0.00723684,0.0,0 STARLINK-3965,1 52550U 22051T   22165.58334491 -.00723684  00000-0 -13081-1 0  9996,2 52550  53.2175 137.6189 0001174  60.7690 293.8299 15.51327347  1302,6790.986999999999,92.824,413.649,412.054,0.0
52550.0,STARLINK-3965,PAYLOAD,2022-06-14 22:00:00,15.5081528,0.0001315,53.2175,136.0233,52.4146,4.5184,-0.013246,-0.00719797,0.0,0 STARLINK-3965,1 52550U 22051T   22165.91667824 -.00719797  00000-0 -13246-1 0  9995,2 52550  53.2175 136.0233 0001315  52.4146   4.5184 15.50815280  5565,6792.481,92.854,415.24,413.453,0.0
52550.0,STARLINK-3965,PAYLOAD,2022-06-15 14:00:01,15.49887993,0.0001409,53.2173,132.8371,55.9871,123.7854,-8.553e-05,-5.303e-05,0.0,0 STARLINK-3965,1 52550U 22051T   22166.58334491 -.00005303  00000-0 -85530-4 0  9999,2 52550  53.2173 132.8371 0001409  55.9871 123.7854 15.49887993  5664,6795.19,92.91,418.013,416.098,0.0
52550.0,STARLINK-3965,PAYLOAD,2022-06-15 22:00:00,15.49886923,0.0001364,53.2175,131.2429,58.8898,181.7975,-1.9842e-05,-1.577e-05,0.0,0 STARLINK-3965,1 52550U 22051T   22166.91667824 -.00001577  00000-0 -19842-4 0  9997,2 52550  53.2175 131.2429 0001364  58.8898 181.7975 15.49886923  1301,6795.194,92.91,417.985,416.132,0.0
52550.0,STARLINK-3965,PAYLOAD,2022-06-16 02:00:01,15.49887009,0.0001653,53.2174,130.4387,61.8609,29.2713,-0.00027412,-0.00015979,0.0,0 STARLINK-3965,1 52550U 22051T   22167.08334491 -.00015979  00000-0 -27412-3 0  9999,2 52550  53.2174 130.4387 0001653  61.8609  29.2713 15.49887009  1301,6795.193,92.91,418.182,415.935,0.0
52550.0,STARLINK-3965,PAYLOAD,2022-06-19 14:00:01,15.47760833,0.0001469,53.2175,113.7385,54.4578,130.9396,-0.014797,-0.00721517,0.0,0 STARLINK-3965,1 52550U 22051T   22170.58334491 -.00721517  00000-0 -14797-1 0  9990,2 52550  53.2175 113.7385 0001469  54.4578 130.9396 15.47760833  1302,6801.415,93.038,424.279,422.281,0.0
52550.0,STARLINK-3965,PAYLOAD,2022-06-19 20:00:01,15.47377454,0.0001538,53.2176,112.5486,48.7538,90.2374,-0.01495,-0.00719442,0.0,0 STARLINK-3965,1 52550U 22051T   22170.83334491 -.00719442  00000-0 -14950-1 0  9993,2 52550  53.2176 112.5486 0001538  48.7538  90.2374 15.47377454  6325,6802.538000000001,93.061,425.45,423.357,0.0
52550.0,STARLINK-3965,PAYLOAD,2022-06-19 22:00:00,15.47249884,0.0001504,53.2177,112.1527,53.4901,189.9557,-0.015018,-0.00719493,0.0,0 STARLINK-3965,1 52550U 22051T   22170.91667824 -.00719493  00000-0 -15018-1 0  9993,2 52550  53.2177 112.1527 0001504  53.4901 189.9557 15.47249884  1305,6802.9119999999975,93.068,425.8,423.754,0.0
52550.0,STARLINK-3965,PAYLOAD,2022-06-20 14:00:01,15.46230986,0.0001161,53.2175,108.9847,63.9671,293.737,-0.015618,-0.00721942,0.0,0 STARLINK-3965,1 52550U 22051T   22171.58334491 -.00721942  00000-0 -15618-1 0  9996,2 52550  53.2175 108.9847 0001161  63.9671 293.7370 15.46230986  1309,6805.9,93.13,428.556,426.975,0.0
52550.0,STARLINK-3965,PAYLOAD,2022-06-20 22:00:00,15.45721402,0.0001234,53.2175,107.4027,58.1763,355.7373,-0.015901,-0.00722177,0.0,0 STARLINK-3965,1 52550U 22051T   22171.91667824 -.00722177  00000-0 -15901-1 0  9998,2 52550  53.2175 107.4027 0001234  58.1763 355.7373 15.45721402  6496,6807.396,93.16,430.101,428.421,0.0
52550.0,STARLINK-3965,PAYLOAD,2022-06-21 14:00:01,15.44699213,0.0001393,53.2174,104.2417,58.6028,105.8934,-0.0163689999999999,-0.00718095,0.0,0 STARLINK-3965,1 52550U 22051T   22172.58334491 -.00718095  00000-0 -16369-1 0  9996,2 52550  53.2174 104.2417 0001393  58.6028 105.8934 15.44699213  1303,6810.399,93.222,433.213,431.315,0.0
52550.0,STARLINK-3965,PAYLOAD,2022-06-21 22:00:00,15.44189307,0.0001465,53.2175,102.6635,60.1672,158.7002,-0.016659,-0.00718183,0.0,0 STARLINK-3965,1 52550U 22051T   22172.91667824 -.00718183  00000-0 -16659-1 0  9992,2 52550  53.2175 102.6635 0001465  60.1672 158.7002 15.44189307  1302,6811.898,93.253,434.761,432.765,0.0
52550.0,STARLINK-3965,PAYLOAD,2022-06-22 00:00:02,15.44062431,0.0001294,53.2175,102.2695,59.8588,262.5694,-0.016753,-0.00719021,0.0,0 STARLINK-3965,1 52550U 22051T   22173.00002315 -.00719021  00000-0 -16753-1 0  9998,2 52550  53.2175 102.2695 0001294  59.8588 262.5694 15.44062431  6668,6812.271,93.26,435.018,433.255,0.0
52550.0,STARLINK-3965,PAYLOAD,2022-06-22 14:00:01,15.43169942,0.0001261,53.2176,99.5096,59.7428,266.0296,-0.017279,-0.00719387,0.0,0 STARLINK-3965,1 52550U 22051T   22173.58334491 -.00719387  00000-0 -17279-1 0  9993,2 52550  53.2176  99.5096 0001261  59.7428 266.0296 15.43169942  1305,6814.898,93.314,437.622,435.903,0.0
52550.0,STARLINK-3965,PAYLOAD,2022-06-22 22:00:00,15.42661492,0.0001296,53.2177,97.9354,53.0966,325.208,-0.017639,-0.00721666,0.0,0 STARLINK-3965,1 52550U 22051T   22173.91667824 -.00721666  00000-0 -17639-1 0  9992,2 52550  53.2177  97.9354 0001296  53.0966 325.2080 15.42661492  1302,6816.395,93.345,439.143,437.377,0.0
52550.0,STARLINK-3965,PAYLOAD,2022-06-23 06:00:00,15.42148134,0.0001222,53.2174,96.363,60.3022,9.9232,-0.01778,-0.00715432,0.0,0 STARLINK-3965,1 52550U 22051T   22174.25001157 -.00715432  00000-0 -17780-1 0  9992,2 52550  53.2174  96.3630 0001222  60.3022   9.9232 15.42148134  6855,6817.908,93.376,440.606,438.939,0.0
52550.0,STARLINK-3965,PAYLOAD,2022-06-23 14:00:01,15.41638737,0.0001429,53.2175,94.7886,50.6318,70.9024,-0.018126,-0.00716888,0.0,0 STARLINK-3965,1 52550U 22051T   22174.58334491 -.00716888  00000-0 -18126-1 0  9999,2 52550  53.2175  94.7886 0001429  50.6318  70.9024 15.41638737  1304,6819.409000000002,93.407,442.249,440.3,0.0
